CTC2_L_00203001-01
1 28763U 24582BD  26037.47792824  .00000000  00000+0  00000-0 0  9997
2 28763  75.0000   0.0000 0000000   0.0000   0.0000 14.42576027    19
CTC2_L_00203001-02
1 28764U 22403WW  26037.47792824  .00000000  00000+0  00000-0 0  9998
2 28764  75.0000   0.0000 0000000   0.0000  90.0000 14.42576027    19
CTC2_L_00203001-03
1 28765U 26657XB  26037.47792824  .00000000  00000+0  00000-0 0  9994
2 28765  75.0000   0.0000 0000000   0.0000 180.0000 14.42576027    10
CTC2_L_00203001-04
1 28766U 24875NO  26037.47792824  .00000000  00000+0  00000-0 0  9995
2 28766  75.0000   0.0000 0000000   0.0000 270.0000 14.42576027    11
CTC2_L_00203002-01
1 28767U 26127KT  26037.47792824  .00000000  00000+0  00000-0 0  9998
2 28767  75.0000  12.0000 0000000   0.0000  12.0000 14.42576027    19
CTC2_L_00203002-02
1 28768U 25958WO  26037.47792824  .00000000  00000+0  00000-0 0  9990
2 28768  75.0000  12.0000 0000000   0.0000 102.0000 14.42576027    10
CTC2_L_00203002-03
1 28769U 24520RE  26037.47792824  .00000000  00000+0  00000-0 0  9995
2 28769  75.0000  12.0000 0000000   0.0000 192.0000 14.42576027    10
CTC2_L_00203002-04
1 28770U 26694RG  26037.47792824  .00000000  00000+0  00000-0 0  9991
2 28770  75.0000  12.0000 0000000   0.0000 282.0000 14.42576027    12
CTC2_L_00203003-01
1 28771U 26679ME  26037.47792824  .00000000  00000+0  00000-0 0  9995
2 28771  75.0000  24.0000 0000000   0.0000  24.0000 14.42576027    10
CTC2_L_00203003-02
1 28772U 24328KT  26037.47792824  .00000000  00000+0  00000-0 0  9995
2 28772  75.0000  24.0000 0000000   0.0000 114.0000 14.42576027    11
CTC2_L_00203003-03
1 28773U 25441AE  26037.47792824  .00000000  00000+0  00000-0 0  9993
2 28773  75.0000  24.0000 0000000   0.0000 204.0000 14.42576027    12
CTC2_L_00203003-04
1 28774U 23641BB  26037.47792824  .00000000  00000+0  00000-0 0  9994
2 28774  75.0000  24.0000 0000000   0.0000 294.0000 14.42576027    12
CTC2_L_00203004-01
1 28775U 24551MB  26037.47792824  .00000000  00000+0  00000-0 0  9996
2 28775  75.0000  36.0000 0000000   0.0000  36.0000 14.42576027    10
CTC2_L_00203004-02
1 28776U 26730LJ  26037.47792824  .00000000  00000+0  00000-0 0  9998
2 28776  75.0000  36.0000 0000000   0.0000 126.0000 14.42576027    11
CTC2_L_00203004-03
1 28777U 24175QA  26037.47792824  .00000000  00000+0  00000-0 0  9990
2 28777  75.0000  36.0000 0000000   0.0000 216.0000 14.42576027    12
CTC2_L_00203004-04
1 28778U 26717JP  26037.47792824  .00000000  00000+0  00000-0 0  9995
2 28778  75.0000  36.0000 0000000   0.0000 306.0000 14.42576027    13
CTC2_L_00203005-01
1 28779U 25009JJ  26037.47792824  .00000000  00000+0  00000-0 0  9999
2 28779  75.0000  48.0000 0000000   0.0000  48.0000 14.42576027    10
CTC2_L_00203005-02
1 28780U 22223QX  26037.47792824  .00000000  00000+0  00000-0 0  9996
2 28780  75.0000  48.0000 0000000   0.0000 138.0000 14.42576027    12
CTC2_L_00203005-03
1 28781U 24228JK  26037.47792824  .00000000  00000+0  00000-0 0  9994
2 28781  75.0000  48.0000 0000000   0.0000 228.0000 14.42576027    13
CTC2_L_00203005-04
1 28782U 24178DL  26037.47792824  .00000000  00000+0  00000-0 0  9999
2 28782  75.0000  48.0000 0000000   0.0000 318.0000 14.42576027    14
CTC2_L_00203006-01
1 28783U 22693MD  26037.47792824  .00000000  00000+0  00000-0 0  9990
2 28783  75.0000  60.0000 0000000   0.0000  60.0000 14.42576027    13
CTC2_L_00203006-02
1 28784U 25440LI  26037.47792824  .00000000  00000+0  00000-0 0  9994
2 28784  75.0000  60.0000 0000000   0.0000 150.0000 14.42576027    14
CTC2_L_00203006-03
1 28785U 25950VG  26037.47792824  .00000000  00000+0  00000-0 0  9991
2 28785  75.0000  60.0000 0000000   0.0000 240.0000 14.42576027    15
CTC2_L_00203006-04
1 28786U 25720VR  26037.47792824  .00000000  00000+0  00000-0 0  9997
2 28786  75.0000  60.0000 0000000   0.0000 330.0000 14.42576027    16
CTC2_L_00203007-01
1 28787U 25259HY  26037.47792824  .00000000  00000+0  00000-0 0  9995
2 28787  75.0000  72.0000 0000000   0.0000  72.0000 14.42576027    13
CTC2_L_00203007-02
1 28788U 22658IB  26037.47792824  .00000000  00000+0  00000-0 0  9996
2 28788  75.0000  72.0000 0000000   0.0000 162.0000 14.42576027    14
CTC2_L_00203007-03
1 28789U 22307GV  26037.47792824  .00000000  00000+0  00000-0 0  9998
2 28789  75.0000  72.0000 0000000   0.0000 252.0000 14.42576027    15
CTC2_L_00203007-04
1 28790U 24637CA  26037.47792824  .00000000  00000+0  00000-0 0  9998
2 28790  75.0000  72.0000 0000000   0.0000 342.0000 14.42576027    17
CTC2_L_00203008-01
1 28791U 23360HN  26037.47792824  .00000000  00000+0  00000-0 0  9991
2 28791  75.0000  84.0000 0000000   0.0000  84.0000 14.42576027    14
CTC2_L_00203008-02
1 28792U 22893CQ  26037.47792824  .00000000  00000+0  00000-0 0  9992
2 28792  75.0000  84.0000 0000000   0.0000 174.0000 14.42576027    15
CTC2_L_00203008-03
1 28793U 23458IO  26037.47792824  .00000000  00000+0  00000-0 0  9991
2 28793  75.0000  84.0000 0000000   0.0000 264.0000 14.42576027    16
CTC2_L_00203008-04
1 28794U 22885SD  26037.47792824  .00000000  00000+0  00000-0 0  9995
2 28794  75.0000  84.0000 0000000   0.0000 354.0000 14.42576027    17
CTC2_L_00203009-01
1 28795U 25982DB  26037.47792824  .00000000  00000+0  00000-0 0  9997
2 28795  75.0000  96.0000 0000000   0.0000  96.0000 14.42576027    14
CTC2_L_00203009-02
1 28796U 22107ZC  26037.47792824  .00000000  00000+0  00000-0 0  9994
2 28796  75.0000  96.0000 0000000   0.0000 186.0000 14.42576027    15
CTC2_L_00203009-03
1 28797U 25650TH  26037.47792824  .00000000  00000+0  00000-0 0  9991
2 28797  75.0000  96.0000 0000000   0.0000 276.0000 14.42576027    16
CTC2_L_00203009-04
1 28798U 22601Q   26037.47792824  .00000000  00000+0  00000-0 0  9995
2 28798  75.0000  96.0000 0000000   0.0000   6.0000 14.42576027    18
CTC2_L_00203010-01
1 28799U 26540IZ  26037.47792824  .00000000  00000+0  00000-0 0  9992
2 28799  75.0000 108.0000 0000000   0.0000 108.0000 14.42576027    16
CTC2_L_00203010-02
1 28800U 22721XD  26037.47792824  .00000000  00000+0  00000-0 0  9992
2 28800  75.0000 108.0000 0000000   0.0000 198.0000 14.42576027    18
CTC2_L_00203010-03
1 28801U 23913RU  26037.47792824  .00000000  00000+0  00000-0 0  9997
2 28801  75.0000 108.0000 0000000   0.0000 288.0000 14.42576027    19
CTC2_L_00203010-04
1 28802U 22030GH  26037.47792824  .00000000  00000+0  00000-0 0  9997
2 28802  75.0000 108.0000 0000000   0.0000  18.0000 14.42576027    11
CTC2_L_00203011-01
1 28803U 25512EU  26037.47792824  .00000000  00000+0  00000-0 0  9996
2 28803  75.0000 120.0000 0000000   0.0000 120.0000 14.42576027    10
CTC2_L_00203011-02
1 28804U 23281VH  26037.47792824  .00000000  00000+0  00000-0 0  9998
2 28804  75.0000 120.0000 0000000   0.0000 210.0000 14.42576027    11
CTC2_L_00203011-03
1 28805U 24761QG  26037.47792824  .00000000  00000+0  00000-0 0  9993
2 28805  75.0000 120.0000 0000000   0.0000 300.0000 14.42576027    12
CTC2_L_00203011-04
1 28806U 25160QJ  26037.47792824  .00000000  00000+0  00000-0 0  9998
2 28806  75.0000 120.0000 0000000   0.0000  30.0000 14.42576027    13
CTC2_L_00203012-01
1 28807U 22840NV  26037.47792824  .00000000  00000+0  00000-0 0  9991
2 28807  75.0000 132.0000 0000000   0.0000 132.0000 14.42576027    10
CTC2_L_00203012-02
1 28808U 25362W   26037.47792824  .00000000  00000+0  00000-0 0  9994
2 28808  75.0000 132.0000 0000000   0.0000 222.0000 14.42576027    11
CTC2_L_00203012-03
1 28809U 24395NH  26037.47792824  .00000000  00000+0  00000-0 0  9990
2 28809  75.0000 132.0000 0000000   0.0000 312.0000 14.42576027    12
CTC2_L_00203012-04
1 28810U 24099ZI  26037.47792824  .00000000  00000+0  00000-0 0  9993
2 28810  75.0000 132.0000 0000000   0.0000  42.0000 14.42576027    14
CTC2_L_00203013-01
1 28811U 26059XU  26037.47792824  .00000000  00000+0  00000-0 0  9992
2 28811  75.0000 144.0000 0000000   0.0000 144.0000 14.42576027    11
CTC2_L_00203013-02
1 28812U 24594GV  26037.47792824  .00000000  00000+0  00000-0 0  9995
2 28812  75.0000 144.0000 0000000   0.0000 234.0000 14.42576027    12
CTC2_L_00203013-03
1 28813U 26811RS  26037.47792824  .00000000  00000+0  00000-0 0  9990
2 28813  75.0000 144.0000 0000000   0.0000 324.0000 14.42576027    13
CTC2_L_00203013-04
1 28814U 25946TF  26037.47792824  .00000000  00000+0  00000-0 0  9999
2 28814  75.0000 144.0000 0000000   0.0000  54.0000 14.42576027    14
CTC2_L_00203014-01
1 28815U 25749IH  26037.47792824  .00000000  00000+0  00000-0 0  9991
2 28815  75.0000 156.0000 0000000   0.0000 156.0000 14.42576027    11
CTC2_L_00203014-02
1 28816U 23045GG  26037.47792824  .00000000  00000+0  00000-0 0  9999
2 28816  75.0000 156.0000 0000000   0.0000 246.0000 14.42576027    12
CTC2_L_00203014-03
1 28817U 24460NX  26037.47792824  .00000000  00000+0  00000-0 0  9992
2 28817  75.0000 156.0000 0000000   0.0000 336.0000 14.42576027    13
CTC2_L_00203014-04
1 28818U 25425QH  26037.47792824  .00000000  00000+0  00000-0 0  9995
2 28818  75.0000 156.0000 0000000   0.0000  66.0000 14.42576027    14
CTC2_L_00203015-01
1 28819U 23991UY  26037.47792824  .00000000  00000+0  00000-0 0  9992
2 28819  75.0000 168.0000 0000000   0.0000 168.0000 14.42576027    11
CTC2_L_00203015-02
1 28820U 22747SY  26037.47792824  .00000000  00000+0  00000-0 0  9992
2 28820  75.0000 168.0000 0000000   0.0000 258.0000 14.42576027    13
CTC2_L_00203015-03
1 28821U 25396DI  26037.47792824  .00000000  00000+0  00000-0 0  9996
2 28821  75.0000 168.0000 0000000   0.0000 348.0000 14.42576027    14
CTC2_L_00203015-04
1 28822U 24762JP  26037.47792824  .00000000  00000+0  00000-0 0  9993
2 28822  75.0000 168.0000 0000000   0.0000  78.0000 14.42576027    15
CTC2_L_00203016-01
1 28823U 25822II  26037.47792824  .00000000  00000+0  00000-0 0  9992
2 28823  75.0000 180.0000 0000000   0.0000 180.0000 14.42576027    14
CTC2_L_00203016-02
1 28824U 22972XO  26037.47792824  .00000000  00000+0  00000-0 0  9996
2 28824  75.0000 180.0000 0000000   0.0000 270.0000 14.42576027    15
